0 ARASE (ERG)
1 41896U 16080A   19060.49123059  .00000075  00000-0  23020-3 0  9994
2 41896  31.8086 336.5006 7014773 236.7503  36.7321  2.53708679 20331
0 ARASE (ERG)
1 41896U 16080A   19059.30950908 +.00000060 +00000-0 +14262-3 0  9995
2 41896 031.8100 336.9599 7014718 236.0472 037.4125 02.53708487020298
