CCSDS_OMM_VERS                     =2.0                      
COMMENT                            =GENERATED VIA SPACE-TRACK.ORG API
CREATION_DATE                      =2019-03-01T04:14:26      
ORIGINATOR                         =18 SPCS                  
OBJECT_NAME                        =ARASE (ERG)              
OBJECT_ID                          =2016-080A                
CENTER_NAME                        =EARTH                    
REF_FRAME                          =TEME                     
TIME_SYSTEM                        =UTC                      
MEAN_ELEMENT_THEORY                =SGP4                     
EPOCH                              =2019-02-28T07:25:41.584512
MEAN_MOTION                        =2.53708487               
ECCENTRICITY                       =0.70147180               
INCLINATION                        =31.8100                  
RA_OF_ASC_NODE                     =336.9599                 
ARG_OF_PERICENTER                  =236.0472                 
MEAN_ANOMALY                       =37.4125                  
EPHEMERIS_TYPE                     =0                        
CLASSIFICATION_TYPE                =U                        
NORAD_CAT_ID                       =41896                    
ELEMENT_SET_NO                     =999                      
REV_AT_EPOCH                       =2029                     
BSTAR                              =0.00014262000000         
MEAN_MOTION_DOT                    =0.00000060               
MEAN_MOTION_DDOT                   =0.0000000000000          
USER_DEFINED_SEMIMAJOR_AXIS        =22707.980                
USER_DEFINED_PERIOD                =567.580                  
USER_DEFINED_APOAPSIS              =32258.853                
USER_DEFINED_PERIAPSIS             =400.837                  
USER_DEFINED_OBJECT_TYPE           =PAYLOAD                  
USER_DEFINED_RCS_SIZE              =LARGE                    
USER_DEFINED_COUNTRY_CODE          =JPN                      
USER_DEFINED_LAUNCH_DATE           =2016-12-20               
USER_DEFINED_SITE                  =KSCUT                    
USER_DEFINED_DECAY_DATE            =                         
USER_DEFINED_FILE                  =2417703                  
USER_DEFINED_GP_ID                 =127026505                              

CCSDS_OMM_VERS                     =2.0                      
COMMENT                            =GENERATED VIA SPACE-TRACK.ORG API
CREATION_DATE                      =2019-03-02T05:10:24      
ORIGINATOR                         =18 SPCS                  
OBJECT_NAME                        =ARASE (ERG)              
OBJECT_ID                          =2016-080A                
CENTER_NAME                        =EARTH                    
REF_FRAME                          =TEME                     
TIME_SYSTEM                        =UTC                      
MEAN_ELEMENT_THEORY                =SGP4                     
EPOCH                              =2019-03-01T11:47:22.322976
MEAN_MOTION                        =2.53708679               
ECCENTRICITY                       =0.70147730               
INCLINATION                        =31.8086                  
RA_OF_ASC_NODE                     =336.5006                 
ARG_OF_PERICENTER                  =236.7503                 
MEAN_ANOMALY                       =36.7321                  
EPHEMERIS_TYPE                     =0                        
CLASSIFICATION_TYPE                =U                        
NORAD_CAT_ID                       =41896                    
ELEMENT_SET_NO                     =999                      
REV_AT_EPOCH                       =2032                     
BSTAR                              =0.00023020000000         
MEAN_MOTION_DOT                    =0.00000075               
MEAN_MOTION_DDOT                   =0.0000000000000          
USER_DEFINED_SEMIMAJOR_AXIS        =22707.968                
USER_DEFINED_PERIOD                =567.580                  
USER_DEFINED_APOAPSIS              =32258.958                
USER_DEFINED_PERIAPSIS             =400.709                  
USER_DEFINED_OBJECT_TYPE           =PAYLOAD                  
USER_DEFINED_RCS_SIZE              =LARGE                    
USER_DEFINED_COUNTRY_CODE          =JPN                      
USER_DEFINED_LAUNCH_DATE           =2016-12-20               
USER_DEFINED_SITE                  =KSCUT                    
USER_DEFINED_DECAY_DATE            =                         
USER_DEFINED_FILE                  =2418289                  
USER_DEFINED_GP_ID                 =127045892                

